OBJECT_NAME,OBJECT_ID,EPOCH,MEAN_MOTION,ECCENTRICITY,INCLINATION,RA_OF_ASC_NODE,ARG_OF_PERICENTER,MEAN_ANOMALY,EPHEMERIS_TYPE,CLASSIFICATION_TYPE,NORAD_CAT_ID,ELEMENT_SET_NO,REV_AT_EPOCH,BSTAR,MEAN_MOTION_DOT,MEAN_MOTION_DDOT
DUBAISAT-1,2009-041B,2026-07-07T07:15:57.881664,14.75158092,.00105437,98.0075,321.3429,14.0912,346.0589,0,U,35682,999,90806,.12168253E-3,.771E-5,0
OCEANSAT-2,2009-051A,2026-07-07T13:45:12.721824,13.99657533,.00168279,98.2318,173.3894,175.6296,184.5020,0,U,35931,999,88218,-.10311838E-3,-.188E-5,0
WORLDVIEW-2 (WV-2),2009-055A,2026-07-07T13:15:33.846048,14.37905525,.00049677,98.4759,261.7244,148.7428,211.4056,0,U,35946,999,87857,.41581255E-4,.82E-6,0
SMOS,2009-059A,2026-07-06T23:53:49.015680,14.39783373,.0001301,98.4428,15.0405,86.7559,273.3779,0,U,36036,999,87630,.79272007E-4,.205E-5,0
YAOGAN-7,2009-069A,2026-07-07T03:03:51.409440,14.78030223,.00240564,98.0047,73.8694,338.2842,21.7346,0,U,36110,999,89257,.61972214E-4,.396E-5,0
TANDEM-X,2010-030A,2026-07-07T11:29:58.987680,15.19154052,.00018872,97.4457,195.8973,94.3019,265.8431,0,U,36605,999,88972,.21565506E-4,.386E-5,0
CARTOSAT-2B,2010-035A,2026-07-07T13:45:22.413312,14.78613615,.0012357,97.9938,238.9920,121.1190,239.1234,0,U,36795,999,86286,.168035E-3,.1179E-4,0
YAOGAN-10,2010-038A,2026-07-07T15:26:50.824320,14.85414570,.00016407,97.8970,211.8846,84.3682,61.6876,0,U,36834,999,86024,.2064709E-3,.1725E-4,0
COSMO-SKYMED 4,2010-060A,2026-07-07T15:06:18.302400,14.82163280,.00015164,97.8897,11.9333,86.5862,273.5524,0,U,37216,999,84759,.42494822E-4,.286E-5,0
RESOURCESAT-2,2011-015A,2026-07-07T13:41:24.195552,14.21604855,.00111358,98.7635,255.8706,192.7911,167.2985,0,U,37387,999,78907,.42594532E-4,.49E-6,0
HAIYANG-2A,2011-043A,2026-07-07T13:43:57.806112,13.73675135,.00039097,99.3402,190.7868,50.9521,309.1975,0,U,37781,999,74945,-.48714017E-4,-.89E-6,0
RASAT,2011-044D,2026-07-07T15:10:03.156672,14.68188340,.00216752,98.0576,279.7178,125.3157,342.3625,0,U,37791,999,79618,.10164844E-3,.538E-5,0
SRMSAT,2011-058D,2026-07-07T12:20:05.633376,14.11579854,.00118785,19.9725,296.4406,67.5382,21.1361,0,U,37841,999,76069,.53719828E-4,.364E-5,0
PLEIADES 1A,2011-076F,2026-07-07T15:30:23.986080,14.58545237,.00017506,98.1965,263.4741,82.4669,23.4078,0,U,38012,999,77497,.10507174E-3,.443E-5,0
ZIYUAN 1-02C (ZY 1-02C),2011-079A,2026-07-07T14:35:38.556096,14.38232953,.00052372,98.4057,255.4896,241.8594,227.7476,0,U,38038,999,76214,.21890127E-3,.622E-5,0
ARIRANG-3 (KOMPSAT-3),2012-025B,2026-07-07T15:07:28.418592,14.62224576,.00066013,98.1180,145.7385,58.3357,301.8488,0,U,38338,999,75433,.80045479E-4,.357E-5,0
EXACTVIEW-1 (ADS-1B),2012-039C,2026-07-07T06:03:13.533408,14.24990589,.00119067,98.9797,306.0977,112.2478,247.9964,0,U,38709,999,72556,.62814355E-4,.101E-5,0
SPOT 6,2012-047A,2026-07-07T13:44:40.504992,14.58537587,.00011672,98.2105,255.6427,78.2030,281.9300,0,U,38755,999,73602,.14519722E-3,.629E-5,0
PLEIADES 1B,2012-068A,2026-07-07T14:11:25.979424,14.58575082,.0001649,98.1936,263.3622,81.5339,278.6047,0,U,39019,999,72382,.12801193E-3,.55E-5,0
GOKTURK 2,2012-073A,2026-07-07T15:04:19.277760,14.75562659,.0000929,97.6816,25.0340,74.1821,285.9492,0,U,39030,999,72752,.15499783E-4,.59E-6,0
LANDSAT 8,2013-008A,2026-07-07T13:22:10.738272,14.57108363,.00013489,98.2293,258.4496,94.3881,265.7471,0,U,39084,999,70086,.66198973E-4,.253E-5,0
SARAL,2013-009A,2026-07-07T13:42:12.940704,14.32894405,.00012376,98.5554,14.8804,188.3882,171.7281,0,U,39086,999,69852,.38153112E-4,.6E-6,0
GAOFEN-1,2013-018A,2026-07-07T15:56:39.394176,14.76513961,.00163715,97.9082,260.3160,195.7427,164.3276,0,U,39150,999,71126,.66118986E-4,.411E-5,0
VNREDSAT 1,2013-021B,2026-07-07T13:56:37.760640,14.64879954,.00016691,97.9064,241.2140,81.7677,278.3716,0,U,39160,999,70327,.12516179E-3,.623E-5,0
ARIRANG-5 (KOMPSAT-5),2013-042A,2026-07-07T14:01:05.757888,15.04515509,.00053494,97.6219,14.9973,75.7375,284.4444,0,U,39227,999,70692,.92436979E-4,.1234E-4,0
SKYSAT-A,2013-066C,2026-07-07T02:20:44.073312,15.13085318,.00198833,97.3802,236.8604,243.0841,116.8359,0,U,39418,999,69149,.14267923E-3,.2472E-4,0
DUBAISAT-2,2013-066D,2026-07-07T14:38:30.893856,15.10337214,.00100481,97.4575,178.2218,333.0444,27.0263,0,U,39419,999,68947,.94704283E-4,.1491E-4,0
GPM-CORE,2014-009C,2026-07-07T11:20:47.217408,15.44983017,.00111232,64.9704,240.1676,259.4987,100.4900,0,U,39574,999,70094,.10263553E-3,.4614E-4,0
SENTINEL-1A,2014-016A,2026-07-07T14:18:18.721728,14.59200693,.00014122,98.1784,195.8309,85.9979,274.1382,0,U,39634,999,65299,.3910816E-4,.139E-5,0
KAZEOSAT 1,2014-024A,2026-07-07T13:25:51.072960,14.42036406,.00012941,98.3193,260.5000,80.5113,279.6223,0,U,39731,999,64149,.12580926E-3,.37E-5,0
