DUBAISAT-1              
1 35682U 09041B   26188.30275326  .00000771  00000+0  12168-3 0  9996
2 35682  98.0075 321.3429 0010543  14.0912 346.0589 14.75158092908069
OCEANSAT-2              
1 35931U 09051A   26188.57306391 -.00000188  00000+0 -10312-3 0  9993
2 35931  98.2318 173.3894 0016827 175.6296 184.5020 13.99657533882187
WORLDVIEW-2 (WV-2)      
1 35946U 09055A   26188.55247507  .00000082  00000+0  41581-4 0  9998
2 35946  98.4759 261.7244 0004967 148.7428 211.4056 14.37905525878572
SMOS                    
1 36036U 09059A   26187.99570620  .00000205  00000+0  79272-4 0  9990
2 36036  98.4428  15.0405 0001301  86.7559 273.3779 14.39783373876305
YAOGAN-7                
1 36110U 09069A   26188.12767835  .00000396  00000+0  61972-4 0  9995
2 36110  98.0047  73.8694 0024056 338.2842  21.7346 14.78030223892579
TANDEM-X                
1 36605U 10030A   26188.47915495  .00000386  00000+0  21566-4 0  9993
2 36605  97.4457 195.8973 0001887  94.3019 265.8431 15.19154052889726
CARTOSAT-2B             
1 36795U 10035A   26188.57317608  .00001179  00000+0  16803-3 0  9999
2 36795  97.9938 238.9920 0012357 121.1190 239.1234 14.78613615862869
YAOGAN-10               
1 36834U 10038A   26188.64364380  .00001725  00000+0  20647-3 0  9991
2 36834  97.8970 211.8846 0001640  84.3682  61.6876 14.85414570860241
COSMO-SKYMED 4          
1 37216U 10060A   26188.62937850  .00000286  00000+0  42495-4 0  9994
2 37216  97.8897  11.9333 0001516  86.5862 273.5524 14.82163280847593
RESOURCESAT-2           
1 37387U 11015A   26188.57041893  .00000049  00000+0  42595-4 0  9999
2 37387  98.7635 255.8706 0011135 192.7911 167.2985 14.21604855789077
HAIYANG-2A              
1 37781U 11043A   26188.57219683 -.00000089  00000+0 -48714-4 0  9997
2 37781  99.3402 190.7868 0003909  50.9521 309.1975 13.73675135749451
RASAT                   
1 37791U 11044D   26188.63198098  .00000538  00000+0  10165-3 0  9997
2 37791  98.0576 279.7178 0021675 125.3157 342.3625 14.68188340796189
SRMSAT                  
1 37841U 11058D   26188.51395409  .00000364  00000+0  53720-4 0  9992
2 37841  19.9725 296.4406 0011878  67.5382  21.1361 14.11579854760692
PLEIADES 1A             
1 38012U 11076F   26188.64611095  .00000443  00000+0  10507-3 0  9992
2 38012  98.1965 263.4741 0001750  82.4669  23.4078 14.58545237774971
ZIYUAN 1-02C (ZY 1-02C) 
1 38038U 11079A   26188.60808514  .00000622  00000+0  21890-3 0  9999
2 38038  98.4057 255.4896 0005237 241.8594 227.7476 14.38232953762141
ARIRANG-3 (KOMPSAT-3)   
1 38338U 12025B   26188.63019003  .00000357  00000+0  80045-4 0  9997
2 38338  98.1180 145.7385 0006601  58.3357 301.8488 14.62224576754334
EXACTVIEW-1 (ADS-1B)    
1 38709U 12039C   26188.25223997  .00000101  00000+0  62814-4 0  9992
2 38709  98.9797 306.0977 0011906 112.2478 247.9964 14.24990589725569
SPOT 6                  
1 38755U 12047A   26188.57269103  .00000629  00000+0  14520-3 0  9991
2 38755  98.2105 255.6427 0001167  78.2030 281.9300 14.58537587736025
PLEIADES 1B             
1 39019U 12068A   26188.59127291  .00000550  00000+0  12801-3 0  9994
2 39019  98.1936 263.3622 0001649  81.5339 278.6047 14.58575082723824
GOKTURK 2               
1 39030U 12073A   26188.62800090  .00000059  00000+0  15500-4 0  9996
2 39030  97.6816  25.0340 0000929  74.1821 285.9492 14.75562659727523
LANDSAT 8               
1 39084U 13008A   26188.55706873  .00000253  00000+0  66199-4 0  9996
2 39084  98.2293 258.4496 0001348  94.3881 265.7471 14.57108363700867
SARAL                   
1 39086U 13009A   26188.57098311  .00000060  00000+0  38153-4 0  9997
2 39086  98.5554  14.8804 0001237 188.3882 171.7281 14.32894405698527
GAOFEN-1                
1 39150U 13018A   26188.66434484  .00000411  00000+0  66119-4 0  9997
2 39150  97.9082 260.3160 0016371 195.7427 164.3276 14.76513961711265
VNREDSAT 1              
1 39160U 13021B   26188.58099260  .00000623  00000+0  12516-3 0  9998
2 39160  97.9064 241.2140 0001669  81.7677 278.3716 14.64879954703278
ARIRANG-5 (KOMPSAT-5)   
1 39227U 13042A   26188.58409442  .00001234  00000+0  92437-4 0  9992
2 39227  97.6219  14.9973 0005349  75.7375 284.4444 15.04515509706926
SKYSAT-A                
1 39418U 13066C   26188.09773233  .00002472  00000+0  14268-3 0  9998
2 39418  97.3802 236.8604 0019883 243.0841 116.8359 15.13085318691493
DUBAISAT-2              
1 39419U 13066D   26188.61007979  .00001491  00000+0  94704-4 0  9998
2 39419  97.4575 178.2218 0010048 333.0444  27.0263 15.10337214689479
GPM-CORE                
1 39574U 14009C   26188.47276872  .00004614  00000+0  10264-3 0  9990
2 39574  64.9704 240.1676 0011123 259.4987 100.4900 15.44983017700944
SENTINEL-1A             
1 39634U 14016A   26188.59605002  .00000139  00000+0  39108-4 0  9996
2 39634  98.1784 195.8309 0001412  85.9979 274.1382 14.59200693652991
KAZEOSAT 1              
1 39731U 14024A   26188.55961890  .00000370  00000+0  12581-3 0  9991
2 39731  98.3193 260.5000 0001294  80.5113 279.6223 14.42036406641490
